[{"OBJECT_NAME":"TIANHUI 2-02A","OBJECT_ID":"2021-074A","EPOCH":"2026-03-09T12:16:24.538368","MEAN_MOTION":15.16780969,"ECCENTRICITY":0.0001796,"INCLINATION":97.4829,"RA_OF_ASC_NODE":73.047,"ARG_OF_PERICENTER":100.814,"MEAN_ANOMALY":259.3296,"EPHEMERIS_TYPE":0,"CLASSIFICATION_TYPE":"U","NORAD_CAT_ID":49071,"ELEMENT_SET_NO":999,"REV_AT_EPOCH":25216,"BSTAR":0.00013771,"MEAN_MOTION_DOT":2.637e-5,"MEAN_MOTION_DDOT":0},{"OBJECT_NAME":"OBJECT B","OBJECT_ID":"2024-094B","EPOCH":"2026-03-09T23:16:02.635680","MEAN_MOTION":15.16281585,"ECCENTRICITY":0.00049641,"INCLINATION":97.3969,"RA_OF_ASC_NODE":142.4807,"ARG_OF_PERICENTER":78.7476,"MEAN_ANOMALY":281.4315,"EPHEMERIS_TYPE":0,"CLASSIFICATION_TYPE":"U","NORAD_CAT_ID":59806,"ELEMENT_SET_NO":999,"REV_AT_EPOCH":10012,"BSTAR":0.00045081306,"MEAN_MOTION_DOT":8.669e-5,"MEAN_MOTION_DDOT":0}]
